     2.100          NAVIGATION                              RINEX VERSION / TYPE
fic2rin                                 06/22/2015 00:15:09 PGM / RUN BY / DATE
                                                            END OF HEADER
20 15  6 21 12  0  0.0  .331664457917D-03  .352429196937D-11  .000000000000D+00
     .150000000000D+02  .279062500000D+02  .536486632536D-08 -.240476850088D+01
     .126101076603D-05  .559424224775D-02  .764429569244D-05  .515583086967D+04
     .432000000000D+05  .102445483208D-06 -.145927991904D+01  .745058059692D-08
     .925827647501D+00  .206250000000D+03  .122398406252D+01 -.831713215622D-08
     .491806199988D-09  .100000000000D+01  .185000000000D+04  .000000000000D+00
     .240000000000D+01  .000000000000D+00 -.838190317154D-08  .150000000000D+02
     .360060000000D+05  .400000000000D+01
21 15  6 21 12  0  0.0 -.457190442830D-03 -.329691829393D-11  .000000000000D+00
     .880000000000D+02 -.609062500000D+02  .498092176110D-08  .821427211215D+00
    -.312551856041D-05  .224729912588D-01  .102724879980D-04  .515380649376D+04
     .432000000000D+05 -.352039933205D-06 -.245041089395D+01 -.856816768646D-07
     .934170455721D+00  .175562500000D+03 -.189923155167D+01 -.853535553182D-08
    -.917895376884D-10  .100000000000D+01  .185000000000D+04  .000000000000D+00
     .340000000000D+01  .000000000000D+00 -.116415321827D-07  .880000000000D+02
     .360060000000D+05  .400000000000D+01
22 15  6 21 12  0  0.0  .363290309906D-03  .397903932026D-11  .000000000000D+00
     .820000000000D+02  .308437500000D+02  .557594654627D-08 -.723086785798D+00
     .180304050446D-05  .800944340881D-02  .745989382267D-05  .515368475914D+04
     .432000000000D+05 -.223517417908D-07 -.140583007700D+01  .126659870148D-06
     .922454522676D+00  .217500000000D+03 -.204171542187D+01 -.859178645382D-08
     .419660337680D-09  .100000000000D+01  .185000000000D+04  .000000000000D+00
     .340000000000D+01  .000000000000D+00 -.176951289177D-07  .820000000000D+02
     .360060000000D+05  .400000000000D+01
23 15  6 21 12  0  0.0 -.116220675409D-03 -.238742359215D-11  .000000000000D+00
     .810000000000D+02 -.646875000000D+01  .508628329269D-08 -.295673439131D+01
    -.394880771637D-06  .103287926177D-01  .659935176373D-05  .515360034943D+04
     .432000000000D+05 -.126659870148D-06 -.334615165768D+00 -.180676579475D-06
     .948455833210D+00  .250187500000D+03 -.266624869068D+01 -.815033949435D-08
    -.247867467532D-09  .100000000000D+01  .185000000000D+04  .000000000000D+00
     .240000000000D+01  .000000000000D+00 -.200234353542D-07  .810000000000D+02
     .360060000000D+05  .400000000000D+01
24 15  6 21 12  0  0.0 -.377185642719D-07 -.568434188608D-12  .000000000000D+00
     .550000000000D+02  .329375000000D+02  .463162149705D-08  .257667353789D+01
     .168196856976D-05  .324025249574D-02  .998936593533D-05  .515367312050D+04
     .432000000000D+05 -.856816768646D-07  .691792713726D+00 -.353902578354D-07
     .953415109406D+00  .182031250000D+03  .361868998965D+00 -.797711799327D-08
    -.236795577772D-09  .100000000000D+01  .185000000000D+04  .000000000000D+00
     .240000000000D+01  .000000000000D+00  .232830643654D-08  .550000000000D+02
     .360060000000D+05  .400000000000D+01
25 15  6 21 12  0  0.0 -.428082421422D-05 -.420641299570D-11  .000000000000D+00
     .150000000000D+02  .589687500000D+02  .426124892669D-08  .544505504154D+00
     .317953526974D-05  .465296010952D-02  .547617673874D-05  .515366713142D+04
     .432000000000D+05  .204890966415D-07  .175574164880D+01  .260770320892D-07
     .978087104317D+00  .280062500000D+03  .744666606376D+00 -.814676791701D-08
     .850035407387D-10  .100000000000D+01  .185000000000D+04  .000000000000D+00
     .240000000000D+01  .000000000000D+00  .558793544769D-08  .150000000000D+02
     .360060000000D+05  .400000000000D+01
26 15  6 21 12  0  0.0 -.483356416225D-06 -.284217094304D-11  .000000000000D+00
     .181000000000D+03  .544062500000D+02  .455911847701D-08 -.129510023348D+01
     .269897282124D-05  .317809986882D-03  .504218041897D-05  .515359090042D+04
     .432000000000D+05 -.167638063431D-07  .175272663315D+01  .558793544769D-08
     .960201723890D+00  .281718750000D+03  .125630343243D+01 -.821569935971D-08
     .464305054455D-10  .100000000000D+01  .185000000000D+04  .000000000000D+00
     .340000000000D+01  .000000000000D+00  .745058059692D-08  .181000000000D+03
     .360060000000D+05  .400000000000D+01
27 15  6 21 12  0  0.0 -.127870589495D-05  .272848410532D-11  .000000000000D+00
     .880000000000D+02 -.679062500000D+02  .430517932800D-08 -.175573845378D+01
    -.345148146152D-05  .254897598643D-02  .448897480965D-05  .515369499779D+04
     .432000000000D+05 -.614672899246D-07  .279981885620D+01 -.279396772385D-07
     .967905213503D+00  .298000000000D+03  .256800129076D+00 -.808676541767D-08
    -.129291099779D-09  .100000000000D+01  .185000000000D+04  .000000000000D+00
     .240000000000D+01  .000000000000D+00  .139698386192D-08  .880000000000D+02
     .360060000000D+05  .400000000000D+01
29 15  6 21 12  0  0.0  .617945566773D-03  .216004991671D-11  .000000000000D+00
     .340000000000D+02 -.645625000000D+02  .434589530970D-08  .776795317100D+00
    -.344775617123D-05  .117805006448D-02  .450201332569D-05  .515374441528D+04
     .432000000000D+05  .428408384323D-07  .285710919612D+01  .260770320892D-07
     .973883409216D+00  .298812500000D+03 -.534366854273D+00 -.815319675623D-08
    -.190365072327D-09  .100000000000D+01  .185000000000D+04  .000000000000D+00
     .240000000000D+01  .000000000000D+00 -.977888703346D-08  .340000000000D+02
     .360060000000D+05  .400000000000D+01
30 15  6 21 12  0  0.0 -.397465191782D-04  .693489710102D-11  .000000000000D+00
     .790000000000D+02  .477500000000D+02  .462126392276D-08  .185958509073D+01
     .265054404736D-05  .153206638061D-02  .933744013309D-05  .515373463440D+04
     .432000000000D+05  .134110450745D-06  .782058592062D+00  .409781932831D-07
     .955924088521D+00  .197000000000D+03  .292425756460D+01 -.808533678673D-08
    -.188579283656D-09  .100000000000D+01  .185000000000D+04  .000000000000D+00
     .240000000000D+01  .000000000000D+00  .325962901115D-08  .790000000000D+02
     .360060000000D+05  .400000000000D+01
31 15  6 21 12  0  0.0  .312264077365D-03 -.113686837722D-11  .000000000000D+00
     .480000000000D+02  .291875000000D+02  .416695928487D-08  .161081256515D+01
     .173412263393D-05  .802392559126D-02  .926479697227D-05  .515353745651D+04
     .432000000000D+05  .838190317154D-07  .740946132135D+00  .540167093277D-07
     .975081444033D+00  .204406250000D+03 -.524870320098D+00 -.775639451354D-08
    -.314655963827D-09  .100000000000D+01  .185000000000D+04  .000000000000D+00
     .240000000000D+01  .000000000000D+00 -.135041773319D-07  .480000000000D+02
     .360060000000D+05  .400000000000D+01
32 15  6 21 12  0  0.0 -.119809526950D-03  .966338120634D-11  .000000000000D+00
     .190000000000D+02  .328437500000D+02  .498377902297D-08  .221956270485D+01
     .167265534401D-05  .112614162499D-01  .711716711521D-05  .515374447823D+04
     .432000000000D+05 -.193715095520D-06 -.130432140405D+01  .229105353355D-06
     .946522105668D+00  .231968750000D+03  .616724890896D-01 -.824105755884D-08
     .311798701953D-09  .100000000000D+01  .185000000000D+04  .000000000000D+00
     .240000000000D+01  .000000000000D+00 -.372529029846D-08  .190000000000D+02
     .360060000000D+05  .400000000000D+01
26 15  6 21 11 59 44.0 -.485219061375D-06 -.284217094304D-11  .000000000000D+00
     .200000000000D+01  .544062500000D+02  .455947563475D-08 -.129741130319D+01
     .269897282124D-05  .317802536301D-03  .504218041897D-05  .515359089661D+04
     .431840000000D+05 -.167638063431D-07  .175272673994D+01  .558793544769D-08
     .960201712187D+00  .281718750000D+03  .125628069284D+01 -.821569935971D-08
     .464305054455D-10  .100000000000D+01  .185000000000D+04  .000000000000D+00
     .240000000000D+01  .000000000000D+00  .745058059692D-08  .200000000000D+01
     .405660000000D+05  .400000000000D+01
17 15  6 21 11 59 44.0 -.176869332790D-03 -.170530256582D-11  .000000000000D+00
     .210000000000D+02 -.735937500000D+02  .425446292974D-08 -.180607334824D+01
    -.376999378204D-05  .101148157846D-01  .484101474285D-05  .515378048515D+04
     .431840000000D+05  .227242708206D-06  .284772629996D+01 -.372529029846D-07
     .973026333790D+00  .293562500000D+03 -.200757119771D+01 -.797318925819D-08
    -.208222959036D-09  .100000000000D+01  .185000000000D+04  .000000000000D+00
     .240000000000D+01  .000000000000D+00 -.107102096081D-07  .210000000000D+02
     .418260000000D+05  .400000000000D+01
29 15  6 21 11 59 44.0  .617950689048D-03  .227373675443D-11  .000000000000D+00
     .240000000000D+02 -.645625000000D+02  .434589530970D-08  .774462963400D+00
    -.344775617123D-05  .117805856280D-02  .450201332569D-05  .515374440956D+04
     .431840000000D+05  .428408384323D-07  .285710931755D+01  .260770320892D-07
     .973883406290D+00  .298812500000D+03 -.534368141641D+00 -.815319675623D-08
    -.190365072327D-09  .100000000000D+01  .185000000000D+04  .000000000000D+00
     .240000000000D+01  .000000000000D+00 -.977888703346D-08  .240000000000D+02
     .427860000000D+05  .400000000000D+01
17 15  6 21 13 59 44.0 -.176880974323D-03 -.170530256582D-11  .000000000000D+00
     .220000000000D+02 -.685000000000D+02  .444375652887D-08 -.755972465928D+00
    -.354461371899D-05  .101151291747D-01  .477395951748D-05  .515378039742D+04
     .503840000000D+05 -.484287738800D-07  .284766807436D+01  .149011611938D-06
     .973023131462D+00  .294937500000D+03 -.200755740385D+01 -.830463163553D-08
    -.259296515026D-09  .100000000000D+01  .185000000000D+04  .000000000000D+00
     .240000000000D+01  .000000000000D+00 -.107102096081D-07  .220000000000D+02
     .432060000000D+05  .400000000000D+01
